NAVSTAR 51 (USA 166)    
1 27663U 03005A   23242.13911748  .00000045  00000+0  00000+0 0  9996
2 27663  55.2485 255.6170 0131741  44.6609  44.2148  2.00566238150806